{
  "norad_id": 66343,
  "name": "STARLINK-35467",
  "history": [
    {
      "epoch": "2026-03-28T17:30:56.835072",
      "apogee_km": 483.50941383816826,
      "perigee_km": 482.5282685528764,
      "latitude_deg": 25.273678297515048,
      "longitude_deg": 164.36315008020028,
      "semi_major_axis_km": 6861.155841195522,
      "eccentricity": 7.15e-05,
      "inclination_deg": 43.0014,
      "raan_deg": 105.2167,
      "arg_perigee_deg": 251.0005,
      "mean_anomaly_deg": 109.0769,
      "mean_motion_rev_day": 15.27590104
    },
    {
      "epoch": "2026-03-29T02:55:53.122368",
      "apogee_km": 483.61911979777597,
      "perigee_km": 482.3978359027178,
      "latitude_deg": 25.484485987763723,
      "longitude_deg": -157.97430847981013,
      "semi_major_axis_km": 6861.145477850247,
      "eccentricity": 8.9e-05,
      "inclination_deg": 43.0001,
      "raan_deg": 103.001,
      "arg_perigee_deg": 256.4972,
      "mean_anomaly_deg": 103.5781,
      "mean_motion_rev_day": 15.27593565
    }
  ]
}